CCSDS_OEM_VERS = 1.0
CREATION_DATE  = 2017-05-11T11:50:48
ORIGINATOR     = GMAT USER

META_START
OBJECT_NAME          = MOPSSat_alt_35785_km_RAAN_270_021
OBJECT_ID            = SatId
CENTER_NAME          = Earth
REF_FRAME            = EME2000
TIME_SYSTEM          = UTC
START_TIME           = 2017-01-01T00:00:00.000
USEABLE_START_TIME   = 2017-01-01T00:00:00.000
USEABLE_STOP_TIME    = 2017-01-02T00:00:00.000
STOP_TIME            = 2017-01-02T00:00:00.000
INTERPOLATION        = Lagrange
INTERPOLATION_DEGREE = 7 
META_STOP


                                                                                   

2017-01-01T11:27:30.000   5.612883560964693e+03   4.178554363493212e+04   8.880938973282609e+00  -3.047540923938117e+00   4.091156135392360e-01  -5.247880577269337e-03
2017-01-01T11:27:40.000   5.582406661715577e+03   4.178962367803515e+04   8.828457965625272e+00  -3.047838713945866e+00   4.068929785020973e-01  -5.248320586605874e-03
2017-01-01T11:27:50.000   5.551926792944730e+03   4.179368149366625e+04   8.775972572380818e+00  -3.048134882872878e+00   4.046701267076309e-01  -5.248757788706065e-03
2017-01-01T11:28:00.000   5.521443970624529e+03   4.179771707969573e+04   8.723482821210746e+00  -3.048429430563359e+00   4.024470593207563e-01  -5.249192183357622e-03
2017-01-01T11:28:10.000   5.490958210643255e+03   4.180173043401758e+04   8.670988739631170e+00  -3.048722356863244e+00   4.002237775002606e-01  -5.249623770351030e-03
2017-01-01T11:28:20.000   5.460469529199501e+03   4.180572155449445e+04   8.618490355692064e+00  -3.049013661616177e+00   3.980002824275632e-01  -5.250052549473578e-03
2017-01-01T11:28:30.000   5.429977942509459e+03   4.180969043899918e+04   8.565987697473107e+00  -3.049303344666550e+00   3.957765752853671e-01  -5.250478520513889e-03
2017-01-01T11:28:40.000   5.399483466806744e+03   4.181363708541393e+04   8.513480793083438e+00  -3.049591405859430e+00   3.935526572576469e-01  -5.250901683261798e-03
2017-01-01T11:28:50.000   5.368986118635978e+03   4.181756149159486e+04   8.460969671167064e+00  -3.049877845037988e+00   3.913285295510592e-01  -5.251322037504625e-03
2017-01-01T11:29:00.000   5.338485914457494e+03   4.182146365542060e+04   8.408454360222308e+00  -3.050162662047037e+00   3.891041933661143e-01  -5.251739583032317e-03
2017-01-01T11:29:10.000   5.307982870802984e+03   4.182534357477283e+04   8.355934888869792e+00  -3.050445856731605e+00   3.868796499085276e-01  -5.252154319635381e-03
2017-01-01T11:29:20.000   5.277477003587183e+03   4.182920124762396e+04   8.303411284667288e+00  -3.050727428943348e+00   3.846549003390209e-01  -5.252566247114267e-03
2017-01-01T11:29:30.000   5.246968328796138e+03   4.183303667194915e+04   8.250883575294809e+00  -3.051007378534124e+00   3.824299458235181e-01  -5.252975365269954e-03
2017-01-01T11:29:40.000   5.216456862331653e+03   4.183684984574679e+04   8.198351788286731e+00  -3.051285705357475e+00   3.802047875217999e-01  -5.253381673906134e-03
2017-01-01T11:29:50.000   5.185942620406046e+03   4.184064076698579e+04   8.145815951711565e+00  -3.051562409264807e+00   3.779794266162931e-01  -5.253785172823539e-03
2017-01-01T11:30:00.000   5.155425619249165e+03   4.184440943364563e+04   8.093276093667406e+00  -3.051837490108279e+00   3.757538642907036e-01  -5.254185861824268e-03
2017-01-01T11:30:10.000   5.124905875108217e+03   4.184815584371497e+04   8.040732242281706e+00  -3.052110947740733e+00   3.735281017300042e-01  -5.254583740711628e-03
2017-01-01T11:30:20.000   5.094383404541583e+03   4.185187999515862e+04   7.988184426216994e+00  -3.052382782013269e+00   3.713021401418622e-01  -5.254978809286688e-03
2017-01-01T11:30:30.000   5.063858224023210e+03   4.185558188596333e+04   7.935632673989879e+00  -3.052652992778579e+00   3.690759807277869e-01  -5.255371067353088e-03
2017-01-01T11:30:40.000   5.033330350101342e+03   4.185926151411900e+04   7.883077014244319e+00  -3.052921579889588e+00   3.668496246947087e-01  -5.255760514715031e-03
2017-01-01T11:30:50.000   5.002799798698094e+03   4.186291887770317e+04   7.830517474545762e+00  -3.053188543205622e+00   3.646230732038939e-01  -5.256147151186239e-03
2017-01-01T11:31:00.000   4.972266585811612e+03   4.186655397479611e+04   7.777954082590015e+00  -3.053453882586203e+00   3.623963274221561e-01  -5.256530976580970e-03
2017-01-01T11:31:10.000   4.941730727334852e+03   4.187016680350300e+04   7.725386865891188e+00  -3.053717597892669e+00   3.601693885086374e-01  -5.256911990716359e-03
2017-01-01T11:31:20.000   4.911192239542826e+03   4.187375736189372e+04   7.672815852620617e+00  -3.053979688983782e+00   3.579422576503440e-01  -5.257290193406042e-03
2017-01-01T11:31:30.000   4.880651138690552e+03   4.187732564805289e+04   7.620241070914637e+00  -3.054240155719379e+00   3.557149360328242e-01  -5.257665584465459e-03
2017-01-01T11:31:40.000   4.850107441105722e+03   4.188087166006833e+04   7.567662549034123e+00  -3.054498997959531e+00   3.534874248469272e-01  -5.258038163710636e-03
2017-01-01T11:31:50.000   4.819561163152925e+03   4.188439539603677e+04   7.515080315302874e+00  -3.054756215564958e+00   3.512597252861943e-01  -5.258407930958800e-03
2017-01-01T11:32:00.000   4.789012321216406e+03   4.188789685406457e+04   7.462494398077939e+00  -3.055011808397084e+00   3.490318385456004e-01  -5.258774886028449e-03
2017-01-01T11:32:10.000   4.758460931663481e+03   4.189137603227208e+04   7.409904825686685e+00  -3.055265776318349e+00   3.468037658188872e-01  -5.259139028739785e-03
2017-01-01T11:32:20.000   4.727907010827595e+03   4.189483292879666e+04   7.357311626397553e+00  -3.055518119192439e+00   3.445755082973268e-01  -5.259500358915098e-03
2017-01-01T11:32:30.000   4.697350574972155e+03   4.189826754179527e+04   7.304714828357868e+00  -3.055768836884470e+00   3.423470671670836e-01  -5.259858876378991e-03
2017-01-01T11:32:40.000   4.666791640383419e+03   4.190167986943482e+04   7.252114459753719e+00  -3.056017929260278e+00   3.401184436159904e-01  -5.260214580957358e-03
2017-01-01T11:32:50.000   4.636230222967592e+03   4.190506990993466e+04   7.199510548116496e+00  -3.056265396189535e+00   3.378896388041635e-01  -5.260567472481775e-03
2017-01-01T11:33:00.000   4.605666338739001e+03   4.190843766151460e+04   7.146903121163129e+00  -3.056511237541938e+00   3.356606538996043e-01  -5.260917550784136e-03
2017-01-01T11:33:10.000   4.575100003635597e+03   4.191178312241461e+04   7.094292206478522e+00  -3.056755453188659e+00   3.334314900647464e-01  -5.261264815698699e-03
2017-01-01T11:33:20.000   4.544531234233596e+03   4.191510629081662e+04   7.041677832745600e+00  -3.056998042996633e+00   3.312021485085714e-01  -5.261609267053966e-03
2017-01-01T11:33:30.000   4.513960047032847e+03   4.191840716492300e+04   6.989060028515280e+00  -3.057239006834286e+00   3.289726304344923e-01  -5.261950904680841e-03
2017-01-01T11:33:40.000   4.483386458641254e+03   4.192168574293621e+04   6.936438822523891e+00  -3.057478344570046e+00   3.267429370538028e-01  -5.262289728410484e-03
2017-01-01T11:33:50.000   4.452810485286853e+03   4.192494202311342e+04   6.883814242853338e+00  -3.057716056076342e+00   3.245130695500948e-01  -5.262625738080041e-03
2017-01-01T11:34:00.000   4.422232143220399e+03   4.192817600372106e+04   6.831186317624049e+00  -3.057952141226270e+00   3.222830291086173e-01  -5.262958933527869e-03
2017-01-01T11:34:10.000   4.391651448622530e+03   4.193138768304530e+04   6.778555074835229e+00  -3.058186599894374e+00   3.200528169095072e-01  -5.263289314594645e-03
2017-01-01T11:34:20.000   4.361068417639613e+03   4.193457705938670e+04   6.725920542426531e+00  -3.058419431956239e+00   3.178224341304014e-01  -5.263616881122789e-03
2017-01-01T11:34:30.000   4.330483066400960e+03   4.193774413105964e+04   6.673282748307721e+00  -3.058650637288471e+00   3.155918819476954e-01  -5.263941632956417e-03
2017-01-01T11:34:40.000   4.299895411055436e+03   4.194088889638862e+04   6.620641720421632e+00  -3.058880215768397e+00   3.133611615392106e-01  -5.264263569940963e-03
2017-01-01T11:34:50.000   4.269305467788435e+03   4.194401135370501e+04   6.567997486773421e+00  -3.059108167273864e+00   3.111302740854331e-01  -5.264582691922829e-03
2017-01-01T11:35:00.000   4.238713252858044e+03   4.194711150134517e+04   6.515350075492796e+00  -3.059334491683066e+00   3.088992207721517e-01  -5.264898998749211e-03
2017-01-01T11:35:10.000   4.208118782502029e+03   4.195018933765907e+04   6.462699514673912e+00  -3.059559188875201e+00   3.066680027836732e-01  -5.265212490268982e-03
2017-01-01T11:35:20.000   4.177522073341175e+03   4.195324486097197e+04   6.410045833069459e+00  -3.059782258727656e+00   3.044366213322393e-01  -5.265523166328821e-03
2017-01-01T11:35:30.000   4.146923141890561e+03   4.195627806963139e+04   6.357389059249651e+00  -3.060003701119449e+00   3.022050776223824e-01  -5.265831026777973e-03
2017-01-01T11:35:40.000   4.116322004741251e+03   4.195928896198948e+04   6.304729221914886e+00  -3.060223515929924e+00   2.999733728641780e-01  -5.266136071466432e-03
2017-01-01T11:35:50.000   4.085718677856418e+03   4.196227753647233e+04   6.252066348684491e+00  -3.060441703043834e+00   2.977415082219104e-01  -5.266438300252013e-03
2017-01-01T11:36:00.000   4.055113177273417e+03   4.196524379151069e+04   6.199400467304874e+00  -3.060658262346268e+00   2.955094848652750e-01  -5.266737712993286e-03
2017-01-01T11:36:10.000   4.024505518944725e+03   4.196818772555593e+04   6.146731605375806e+00  -3.060873193723817e+00   2.932773039577780e-01  -5.267034309551224e-03
2017-01-01T11:36:20.000   3.993895719134050e+03   4.197110933703894e+04   6.094059791032128e+00  -3.061086497061576e+00   2.910449666856237e-01  -5.267328089784954e-03
2017-01-01T11:36:30.000   3.963283794122316e+03   4.197400862440155e+04   6.041385052437720e+00  -3.061298172245442e+00   2.888124742362730e-01  -5.267619053555036e-03
